start=new Date('2021-09-09T00:00:00.000Z').valueOf();
sats=[{"LAUNCH_DATE":"2021-02-04","MEAN_MOTION":"15.06392334","MEAN_ANOMALY":"299.8749","OBJECT_ID":"2021-009AA","GP_ID":"184349032","ECCENTRICITY":"0.00017440","COUNTRY_CODE":"US","APOAPSIS":"548.445","NORAD_CAT_ID":"47572","DECAY_DATE":null,"MEAN_ELEMENT_THEORY":"SGP4","OBJECT_TYPE":"PAYLOAD","PERIAPSIS":"546.029","TLE_LINE2":"2 47572  53.0544 186.2916 0001744  60.2413 299.8749 15.06392334 33339","SITE":"AFETR","MEAN_MOTION_DOT":"-0.00000024","MEAN_MOTION_DDOT":"0.0000000000000","REV_AT_EPOCH":"3333","SEMIMAJOR_AXIS":"6925.372","CLASSIFICATION_TYPE":"U","TLE_LINE1":"1 47572U 21009AA  21251.91820701 -.00000024  00000-0  17302-4 0  9990","RCS_SIZE":"LARGE","BSTAR":"0.00001730200000","EPHEMERIS_TYPE":"0","TIME_SYSTEM":"UTC","EPOCH":"2021-09-08T22:02:13.085664","OBJECT_NAME":"STARLINK-1971","REF_FRAME":"TEME","PERIOD":"95.593","ELEMENT_SET_NO":"999","INCLINATION":"53.0544","RA_OF_ASC_NODE":"186.2916","CENTER_NAME":"EARTH","FILE":"3111252","ARG_OF_PERICENTER":"60.2413"},{"REF_FRAME":"TEME","INCLINATION":"53.0514","PERIOD":"95.592","ELEMENT_SET_NO":"999","RA_OF_ASC_NODE":"186.7112","CENTER_NAME":"EARTH","FILE":"3111160","ARG_OF_PERICENTER":"54.9224","TLE_LINE1":"1 47573U 21009AB  21251.82973966 -.00001315  00000-0 -69390-4 0  9992","RCS_SIZE":"LARGE","BSTAR":"-0.00006939000000","EPHEMERIS_TYPE":"0","EPOCH":"2021-09-08T19:54:49.506624","OBJECT_NAME":"STARLINK-1975","TIME_SYSTEM":"UTC","PERIAPSIS":"545.982","OBJECT_TYPE":"PAYLOAD","TLE_LINE2":"2 47573  53.0514 186.7112 0001776  54.9224 305.1931 15.06400592 33919","SITE":"AFETR","MEAN_MOTION_DOT":"-0.00001315","MEAN_MOTION_DDOT":"0.0000000000000","REV_AT_EPOCH":"3391","SEMIMAJOR_AXIS":"6925.347","CLASSIFICATION_TYPE":"U","LAUNCH_DATE":"2021-02-04","MEAN_ANOMALY":"305.1931","MEAN_MOTION":"15.06400592","ECCENTRICITY":"0.00017760","GP_ID":"184324661","OBJECT_ID":"2021-009AB","NORAD_CAT_ID":"47573","APOAPSIS":"548.442","MEAN_ELEMENT_THEORY":"SGP4","DECAY_DATE":null,"COUNTRY_CODE":"US"},{"RCS_SIZE":"LARGE","TLE_LINE1":"1 47574U 21009AC  21251.64636710  .00000886  00000-0  78364-4 0  9997","BSTAR":"0.00007836400000","EPHEMERIS_TYPE":"0","OBJECT_NAME":"STARLINK-1976","EPOCH":"2021-09-08T15:30:46.117440","TIME_SYSTEM":"UTC","REF_FRAME":"TEME","INCLINATION":"53.0549","ELEMENT_SET_NO":"999","PERIOD":"95.592","CENTER_NAME":"EARTH","RA_OF_ASC_NODE":"217.5124","ARG_OF_PERICENTER":"67.4989","FILE":"3111252","LAUNCH_DATE":"2021-02-04","MEAN_ANOMALY":"292.6152","MEAN_MOTION":"15.06403987","GP_ID":"184348031","ECCENTRICITY":"0.00014340","OBJECT_ID":"2021-009AC","MEAN_ELEMENT_THEORY":"SGP4","DECAY_DATE":null,"APOAPSIS":"548.194","NORAD_CAT_ID":"47574","COUNTRY_CODE":"US","PERIAPSIS":"546.208","OBJECT_TYPE":"PAYLOAD","MEAN_MOTION_DDOT":"0.0000000000000","SITE":"AFETR","TLE_LINE2":"2 47574  53.0549 217.5124 0001434  67.4989 292.6152 15.06403987 32861","MEAN_MOTION_DOT":"0.00000886","SEMIMAJOR_AXIS":"6925.336","CLASSIFICATION_TYPE":"U","REV_AT_EPOCH":"3286"},{"REV_AT_EPOCH":"3286","CLASSIFICATION_TYPE":"U","SEMIMAJOR_AXIS":"6925.348","TLE_LINE2":"2 47575  53.0543 217.5685 0001454  56.4688 303.6440 15.06400138 32862","SITE":"AFETR","MEAN_MOTION_DOT":"0.00001252","MEAN_MOTION_DDOT":"0.0000000000000","OBJECT_TYPE":"PAYLOAD","PERIAPSIS":"546.206","COUNTRY_CODE":"US","APOAPSIS":"548.220","NORAD_CAT_ID":"47575","DECAY_DATE":null,"MEAN_ELEMENT_THEORY":"SGP4","OBJECT_ID":"2021-009AD","ECCENTRICITY":"0.00014540","GP_ID":"184348281","MEAN_MOTION":"15.06400138","MEAN_ANOMALY":"303.6440","LAUNCH_DATE":"2021-02-04","FILE":"3111252","ARG_OF_PERICENTER":"56.4688","CENTER_NAME":"EARTH","RA_OF_ASC_NODE":"217.5685","PERIOD":"95.592","ELEMENT_SET_NO":"999","INCLINATION":"53.0543","REF_FRAME":"TEME","TIME_SYSTEM":"UTC","EPOCH":"2021-09-08T15:14:50.793504","OBJECT_NAME":"STARLINK-1977","EPHEMERIS_TYPE":"0","TLE_LINE1":"1 47575U 21009AD  21251.63531011  .00001252  00000-0  10295-3 0  9991","RCS_SIZE":"LARGE","BSTAR":"0.00010295000000"},{"MEAN_MOTION_DDOT":"0.0000000000000","TLE_LINE2":"2 47576  53.0567 176.8360 0001997  66.9497 293.1703 15.06402970 33459","MEAN_MOTION_DOT":"0.00001431","SITE":"AFETR","PERIAPSIS":"545.821","OBJECT_TYPE":"PAYLOAD","SEMIMAJOR_AXIS":"6925.339","CLASSIFICATION_TYPE":"U","REV_AT_EPOCH":"3345","MEAN_ANOMALY":"293.1703","MEAN_MOTION":"15.06402970","LAUNCH_DATE":"2021-02-04","MEAN_ELEMENT_THEORY":"SGP4","DECAY_DATE":null,"APOAPSIS":"548.587","NORAD_CAT_ID":"47576","COUNTRY_CODE":"US","ECCENTRICITY":"0.00019970","GP_ID":"184348532","OBJECT_ID":"2021-009AE","INCLINATION":"53.0567","ELEMENT_SET_NO":"999","PERIOD":"95.592","REF_FRAME":"TEME","ARG_OF_PERICENTER":"66.9497","FILE":"3111252","CENTER_NAME":"EARTH","RA_OF_ASC_NODE":"176.8360","EPHEMERIS_TYPE":"0","TLE_LINE1":"1 47576U 21009AE  21251.80116908  .00001431  00000-0  11492-3 0  9994","RCS_SIZE":"LARGE","BSTAR":"0.00011492000000","OBJECT_NAME":"STARLINK-1978","EPOCH":"2021-09-08T19:13:41.008512","TIME_SYSTEM":"UTC"},{"OBJECT_ID":"2021-009AF","ECCENTRICITY":"0.00016550","GP_ID":"184349283","COUNTRY_CODE":"US","APOAPSIS":"548.346","NORAD_CAT_ID":"47577","DECAY_DATE":null,"MEAN_ELEMENT_THEORY":"SGP4","LAUNCH_DATE":"2021-02-04","MEAN_MOTION":"15.06404339","MEAN_ANOMALY":"309.7282","REV_AT_EPOCH":"3325","CLASSIFICATION_TYPE":"U","SEMIMAJOR_AXIS":"6925.335","OBJECT_TYPE":"PAYLOAD","PERIAPSIS":"546.054","SITE":"AFETR","TLE_LINE2":"2 47577  53.0595 191.6396 0001655  50.3853 309.7282 15.06404339 33254","MEAN_MOTION_DOT":"0.00000900","MEAN_MOTION_DDOT":"0.0000000000000","TIME_SYSTEM":"UTC","EPOCH":"2021-09-08T20:12:43.896672","OBJECT_NAME":"STARLINK-1979","RCS_SIZE":"LARGE","TLE_LINE1":"1 47577U 21009AF  21251.84217473  .00000900  00000-0  79321-4 0  9994","BSTAR":"0.00007932100000","EPHEMERIS_TYPE":"0","RA_OF_ASC_NODE":"191.6396","CENTER_NAME":"EARTH","FILE":"3111252","ARG_OF_PERICENTER":"50.3853","REF_FRAME":"TEME","PERIOD":"95.592","ELEMENT_SET_NO":"999","INCLINATION":"53.0595"},{"GP_ID":"184324656","ECCENTRICITY":"0.00013660","OBJECT_ID":"2021-009AG","DECAY_DATE":null,"MEAN_ELEMENT_THEORY":"SGP4","NORAD_CAT_ID":"47578","APOAPSIS":"548.144","COUNTRY_CODE":"US","LAUNCH_DATE":"2021-02-04","MEAN_ANOMALY":"313.3877","MEAN_MOTION":"15.06405222","CLASSIFICATION_TYPE":"U","SEMIMAJOR_AXIS":"6925.333","REV_AT_EPOCH":"3373","PERIAPSIS":"546.252","OBJECT_TYPE":"PAYLOAD","MEAN_MOTION_DDOT":"0.0000000000000","SITE":"AFETR","TLE_LINE2":"2 47578  53.0544 197.8564 0001366  46.7226 313.3877 15.06405222 33732","MEAN_MOTION_DOT":"-0.00000207","OBJECT_NAME":"STARLINK-1980","EPOCH":"2021-09-08T13:41:57.789600","TIME_SYSTEM":"UTC","TLE_LINE1":"1 47578U 21009AG  21251.57080775 -.00000207  00000-0  50026-5 0  9991","RCS_SIZE":"LARGE","BSTAR":"0.00000500260000","EPHEMERIS_TYPE":"0","RA_OF_ASC_NODE":"197.8564","CENTER_NAME":"EARTH","ARG_OF_PERICENTER":"46.7226","FILE":"3111160","REF_FRAME":"TEME","INCLINATION":"53.0544","ELEMENT_SET_NO":"999","PERIOD":"95.592"},{"LAUNCH_DATE":"2021-02-04","MEAN_MOTION":"15.06397006","MEAN_ANOMALY":"296.4708","OBJECT_ID":"2021-009AH","ECCENTRICITY":"0.00015830","GP_ID":"184347781","COUNTRY_CODE":"US","DECAY_DATE":null,"MEAN_ELEMENT_THEORY":"SGP4","APOAPSIS":"548.319","NORAD_CAT_ID":"47579","OBJECT_TYPE":"PAYLOAD","PERIAPSIS":"546.126","MEAN_MOTION_DDOT":"0.0000000000000","TLE_LINE2":"2 47579  53.0548 186.7447 0001583  63.6444 296.4708 15.06397006 33313","MEAN_MOTION_DOT":"-0.00000285","SITE":"AFETR","CLASSIFICATION_TYPE":"U","SEMIMAJOR_AXIS":"6925.358","REV_AT_EPOCH":"3331","TLE_LINE1":"1 47579U 21009AH  21251.81868203 -.00000285  00000-0 -24401-6 0  9995","BSTAR":"-0.00000024401000","RCS_SIZE":"LARGE","EPHEMERIS_TYPE":"0","TIME_SYSTEM":"UTC","OBJECT_NAME":"STARLINK-1981","EPOCH":"2021-09-08T19:38:54.127392","REF_FRAME":"TEME","ELEMENT_SET_NO":"999","PERIOD":"95.592","INCLINATION":"53.0548","CENTER_NAME":"EARTH","RA_OF_ASC_NODE":"186.7447","ARG_OF_PERICENTER":"63.6444","FILE":"3111252"},{"GP_ID":"184349033","ECCENTRICITY":"0.00017150","OBJECT_ID":"2021-009AJ","APOAPSIS":"548.420","NORAD_CAT_ID":"47580","DECAY_DATE":null,"MEAN_ELEMENT_THEORY":"SGP4","COUNTRY_CODE":"US","LAUNCH_DATE":"2021-02-04","MEAN_ANOMALY":"311.6510","MEAN_MOTION":"15.06393730","REV_AT_EPOCH":"3317","CLASSIFICATION_TYPE":"U","SEMIMAJOR_AXIS":"6925.368","PERIAPSIS":"546.045","OBJECT_TYPE":"PAYLOAD","SITE":"AFETR","TLE_LINE2":"2 47580  53.0530 196.6511 0001715  48.4626 311.6510 15.06393730 33173","MEAN_MOTION_DOT":"-0.00000431","MEAN_MOTION_DDOT":"0.0000000000000","EPOCH":"2021-09-08T20:09:25.668288","OBJECT_NAME":"STARLINK-1982","TIME_SYSTEM":"UTC","RCS_SIZE":"LARGE","TLE_LINE1":"1 47580U 21009AJ  21251.83988042 -.00000431  00000-0 -10063-4 0  9993","BSTAR":"-0.00001006300000","EPHEMERIS_TYPE":"0","RA_OF_ASC_NODE":"196.6511","CENTER_NAME":"EARTH","FILE":"3111252","ARG_OF_PERICENTER":"48.4626","REF_FRAME":"TEME","INCLINATION":"53.0530","PERIOD":"95.593","ELEMENT_SET_NO":"999"},{"EPHEMERIS_TYPE":"0","RCS_SIZE":"LARGE","TLE_LINE1":"1 47581U 21009AK  21251.81959564  .00000935  00000-0  81657-4 0  9993","BSTAR":"0.00008165700000","TIME_SYSTEM":"UTC","OBJECT_NAME":"STARLINK-1984","EPOCH":"2021-09-08T19:40:13.063296","ELEMENT_SET_NO":"999","PERIOD":"95.592","INCLINATION":"53.0557","REF_FRAME":"TEME","ARG_OF_PERICENTER":"64.7375","FILE":"3111252","RA_OF_ASC_NODE":"176.7342","CENTER_NAME":"EARTH","MEAN_MOTION":"15.06402421","MEAN_ANOMALY":"295.3812","LAUNCH_DATE":"2021-02-04","COUNTRY_CODE":"US","DECAY_DATE":null,"MEAN_ELEMENT_THEORY":"SGP4","APOAPSIS":"548.526","NORAD_CAT_ID":"47581","OBJECT_ID":"2021-009AK","GP_ID":"184348783","ECCENTRICITY":"0.00019060","MEAN_MOTION_DDOT":"0.0000000000000","TLE_LINE2":"2 47581  53.0557 176.7342 0001906  64.7375 295.3812 15.06402421 33450","SITE":"AFETR","MEAN_MOTION_DOT":"0.00000935","OBJECT_TYPE":"PAYLOAD","PERIAPSIS":"545.886","CLASSIFICATION_TYPE":"U","SEMIMAJOR_AXIS":"6925.341","REV_AT_EPOCH":"3345"}];
